CCSDS_OMM_VERS = 2.0
CREATION_DATE  = 
ORIGINATOR     = 

OBJECT_NAME    = IDEFIX & ARIANE 42P R/B
OBJECT_ID      = 2002-021B
CENTER_NAME    = EARTH
REF_FRAME      = TEME
TIME_SYSTEM    = UTC
MEAN_ELEMENT_THEORY = SGP/SGP4

EPOCH          = 2025-12-17T19:51:36.369792
MEAN_MOTION    = 14.30954111
ECCENTRICITY   = .00129253
INCLINATION    = 98.5792
RA_OF_ASC_NODE = 286.4524
ARG_OF_PERICENTER = 70.0130
MEAN_ANOMALY   = 290.2444

EPHEMERIS_TYPE = 0
CLASSIFICATION_TYPE = U
NORAD_CAT_ID   = 27422
ELEMENT_SET_NO = 999
REV_AT_EPOCH   = 23231
BSTAR          = .10722129E-3
MEAN_MOTION_DOT = .238E-5
MEAN_MOTION_DDOT = 0

CCSDS_OMM_VERS = 2.0
CREATION_DATE  = 
ORIGINATOR     = 

OBJECT_NAME    = AQUA
OBJECT_ID      = 2002-022A
CENTER_NAME    = EARTH
REF_FRAME      = TEME
TIME_SYSTEM    = UTC
MEAN_ELEMENT_THEORY = SGP/SGP4

EPOCH          = 2025-12-17T16:39:39.625632
MEAN_MOTION    = 14.61820578
ECCENTRICITY   = .00012752
INCLINATION    = 98.4042
RA_OF_ASC_NODE = 312.6539
ARG_OF_PERICENTER = 113.5428
MEAN_ANOMALY   = 349.8052

EPHEMERIS_TYPE = 0
CLASSIFICATION_TYPE = U
NORAD_CAT_ID   = 27424
ELEMENT_SET_NO = 999
REV_AT_EPOCH   = 25675
BSTAR          = .18111958E-3
MEAN_MOTION_DOT = .855E-5
MEAN_MOTION_DDOT = 0

CCSDS_OMM_VERS = 2.0
CREATION_DATE  = 
ORIGINATOR     = 

OBJECT_NAME    = CZ-4B R/B
OBJECT_ID      = 2002-024C
CENTER_NAME    = EARTH
REF_FRAME      = TEME
TIME_SYSTEM    = UTC
MEAN_ELEMENT_THEORY = SGP/SGP4

EPOCH          = 2025-12-17T17:56:39.090624
MEAN_MOTION    = 14.14528931
ECCENTRICITY   = .00491845
INCLINATION    = 98.8993
RA_OF_ASC_NODE = 40.5018
ARG_OF_PERICENTER = 255.3874
MEAN_ANOMALY   = 212.6913

EPHEMERIS_TYPE = 0
CLASSIFICATION_TYPE = U
NORAD_CAT_ID   = 27432
ELEMENT_SET_NO = 999
REV_AT_EPOCH   = 21765
BSTAR          = .48883511E-4
MEAN_MOTION_DOT = .5E-6
MEAN_MOTION_DDOT = 0

CCSDS_OMM_VERS = 2.0
CREATION_DATE  = 
ORIGINATOR     = 

OBJECT_NAME    = MIDORI II (ADEOS-II)
OBJECT_ID      = 2002-056A
CENTER_NAME    = EARTH
REF_FRAME      = TEME
TIME_SYSTEM    = UTC
MEAN_ELEMENT_THEORY = SGP/SGP4

EPOCH          = 2025-12-17T21:30:18.208512
MEAN_MOTION    = 14.29209218
ECCENTRICITY   = .00004565
INCLINATION    = 98.7643
RA_OF_ASC_NODE = 304.8795
ARG_OF_PERICENTER = 152.5677
MEAN_ANOMALY   = 207.5528

EPHEMERIS_TYPE = 0
CLASSIFICATION_TYPE = U
NORAD_CAT_ID   = 27597
ELEMENT_SET_NO = 999
REV_AT_EPOCH   = 19861
BSTAR          = .10254646E-3
MEAN_MOTION_DOT = .215E-5
MEAN_MOTION_DDOT = 0

CCSDS_OMM_VERS = 2.0
CREATION_DATE  = 
ORIGINATOR     = 

OBJECT_NAME    = H-2A R/B
OBJECT_ID      = 2002-056E
CENTER_NAME    = EARTH
REF_FRAME      = TEME
TIME_SYSTEM    = UTC
MEAN_ELEMENT_THEORY = SGP/SGP4

EPOCH          = 2025-12-17T21:58:51.119616
MEAN_MOTION    = 14.33680526
ECCENTRICITY   = .0071252
INCLINATION    = 98.3072
RA_OF_ASC_NODE = 310.4666
ARG_OF_PERICENTER = 45.9512
MEAN_ANOMALY   = 19.7486

EPHEMERIS_TYPE = 0
CLASSIFICATION_TYPE = U
NORAD_CAT_ID   = 27601
ELEMENT_SET_NO = 999
REV_AT_EPOCH   = 20239
BSTAR          = .11972015E-3
MEAN_MOTION_DOT = .3E-5
MEAN_MOTION_DDOT = 0

CCSDS_OMM_VERS = 2.0
CREATION_DATE  = 
ORIGINATOR     = 

OBJECT_NAME    = CZ-4B R/B
OBJECT_ID      = 2003-049C
CENTER_NAME    = EARTH
REF_FRAME      = TEME
TIME_SYSTEM    = UTC
MEAN_ELEMENT_THEORY = SGP/SGP4

EPOCH          = 2025-12-17T21:23:14.866656
MEAN_MOTION    = 14.54914197
ECCENTRICITY   = .00492136
INCLINATION    = 98.6790
RA_OF_ASC_NODE = 338.6497
ARG_OF_PERICENTER = 120.6230
MEAN_ANOMALY   = 239.9832

EPHEMERIS_TYPE = 0
CLASSIFICATION_TYPE = U
NORAD_CAT_ID   = 28059
ELEMENT_SET_NO = 999
REV_AT_EPOCH   = 17470
BSTAR          = .86120433E-4
MEAN_MOTION_DOT = .325E-5
MEAN_MOTION_DDOT = 0

CCSDS_OMM_VERS = 2.0
CREATION_DATE  = 
ORIGINATOR     = 

OBJECT_NAME    = CZ-2C R/B
OBJECT_ID      = 2004-012C
CENTER_NAME    = EARTH
REF_FRAME      = TEME
TIME_SYSTEM    = UTC
MEAN_ELEMENT_THEORY = SGP/SGP4

EPOCH          = 2025-12-17T21:14:37.481856
MEAN_MOTION    = 15.55897765
ECCENTRICITY   = .00164551
INCLINATION    = 97.7420
RA_OF_ASC_NODE = 44.9330
ARG_OF_PERICENTER = 250.1529
MEAN_ANOMALY   = 109.7951

EPHEMERIS_TYPE = 0
CLASSIFICATION_TYPE = U
NORAD_CAT_ID   = 28222
ELEMENT_SET_NO = 999
REV_AT_EPOCH   = 19152
BSTAR          = .48736059E-3
MEAN_MOTION_DOT = .3395E-3
MEAN_MOTION_DDOT = 0

CCSDS_OMM_VERS = 2.0
CREATION_DATE  = 
ORIGINATOR     = 

OBJECT_NAME    = SL-16 R/B
OBJECT_ID      = 2004-021B
CENTER_NAME    = EARTH
REF_FRAME      = TEME
TIME_SYSTEM    = UTC
MEAN_ELEMENT_THEORY = SGP/SGP4

EPOCH          = 2025-12-17T20:30:13.056192
MEAN_MOTION    = 14.14579023
ECCENTRICITY   = .00050177
INCLINATION    = 71.0010
RA_OF_ASC_NODE = 44.2324
ARG_OF_PERICENTER = 191.8105
MEAN_ANOMALY   = 168.2900

EPHEMERIS_TYPE = 0
CLASSIFICATION_TYPE = U
NORAD_CAT_ID   = 28353
ELEMENT_SET_NO = 999
REV_AT_EPOCH   = 11126
BSTAR          = -.57667417E-4
MEAN_MOTION_DOT = -.158E-5
MEAN_MOTION_DDOT = 0

CCSDS_OMM_VERS = 2.0
CREATION_DATE  = 
ORIGINATOR     = 

OBJECT_NAME    = CZ-4B R/B
OBJECT_ID      = 2004-035C
CENTER_NAME    = EARTH
REF_FRAME      = TEME
TIME_SYSTEM    = UTC
MEAN_ELEMENT_THEORY = SGP/SGP4

EPOCH          = 2025-12-17T16:06:44.049888
MEAN_MOTION    = 15.27451431
ECCENTRICITY   = .00315237
INCLINATION    = 97.3603
RA_OF_ASC_NODE = 21.9499
ARG_OF_PERICENTER = 258.9877
MEAN_ANOMALY   = 100.7816

EPHEMERIS_TYPE = 0
CLASSIFICATION_TYPE = U
NORAD_CAT_ID   = 28415
ELEMENT_SET_NO = 999
REV_AT_EPOCH   = 16738
BSTAR          = .24450864E-3
MEAN_MOTION_DOT = .6588E-4
MEAN_MOTION_DDOT = 0

CCSDS_OMM_VERS = 2.0
CREATION_DATE  = 
ORIGINATOR     = 

OBJECT_NAME    = CZ-2C R/B
OBJECT_ID      = 2004-046B
CENTER_NAME    = EARTH
REF_FRAME      = TEME
TIME_SYSTEM    = UTC
MEAN_ELEMENT_THEORY = SGP/SGP4

EPOCH          = 2025-12-17T17:27:00.030816
MEAN_MOTION    = 14.26943486
ECCENTRICITY   = .01402795
INCLINATION    = 98.1992
RA_OF_ASC_NODE = 266.7949
ARG_OF_PERICENTER = 37.6503
MEAN_ANOMALY   = 323.4398

EPHEMERIS_TYPE = 0
CLASSIFICATION_TYPE = U
NORAD_CAT_ID   = 28480
ELEMENT_SET_NO = 999
REV_AT_EPOCH   = 9681
BSTAR          = .77433561E-4
MEAN_MOTION_DOT = .168E-5
MEAN_MOTION_DDOT = 0

CCSDS_OMM_VERS = 2.0
CREATION_DATE  = 
ORIGINATOR     = 

OBJECT_NAME    = ARIANE 5 R/B
OBJECT_ID      = 2004-049H
CENTER_NAME    = EARTH
REF_FRAME      = TEME
TIME_SYSTEM    = UTC
MEAN_ELEMENT_THEORY = SGP/SGP4

EPOCH          = 2025-12-17T21:47:49.504704
MEAN_MOTION    = 14.85024708
ECCENTRICITY   = .00833135
INCLINATION    = 98.2524
RA_OF_ASC_NODE = 152.3749
ARG_OF_PERICENTER = 255.9497
MEAN_ANOMALY   = 103.2445

EPHEMERIS_TYPE = 0
CLASSIFICATION_TYPE = U
NORAD_CAT_ID   = 28499
ELEMENT_SET_NO = 999
REV_AT_EPOCH   = 13365
BSTAR          = .11726166E-3
MEAN_MOTION_DOT = .999E-5
MEAN_MOTION_DDOT = 0

CCSDS_OMM_VERS = 2.0
CREATION_DATE  = 
ORIGINATOR     = 

OBJECT_NAME    = CZ-2D R/B
OBJECT_ID      = 2005-024B
CENTER_NAME    = EARTH
REF_FRAME      = TEME
TIME_SYSTEM    = UTC
MEAN_ELEMENT_THEORY = SGP/SGP4

EPOCH          = 2025-12-17T17:55:13.396512
MEAN_MOTION    = 15.53473632
ECCENTRICITY   = .00046965
INCLINATION    = 97.3627
RA_OF_ASC_NODE = 359.3261
ARG_OF_PERICENTER = 347.4204
MEAN_ANOMALY   = 12.6931

EPHEMERIS_TYPE = 0
CLASSIFICATION_TYPE = U
NORAD_CAT_ID   = 28738
ELEMENT_SET_NO = 999
REV_AT_EPOCH   = 12703
BSTAR          = .40785376E-3
MEAN_MOTION_DOT = .25825E-3
MEAN_MOTION_DDOT = 0

