IDEFIX & ARIANE 42P R/B 
1 27422U 02021B   25351.82750428  .00000238  00000+0  10722-3 0  9991
2 27422  98.5792 286.4524 0012925  70.0130 290.2444 14.30954111232315
AQUA                    
1 27424U 02022A   25351.69420863  .00000855  00000+0  18112-3 0  9992
2 27424  98.4042 312.6539 0001275 113.5428 349.8052 14.61820578256754
CZ-4B R/B               
1 27432U 02024C   25351.74767466  .00000050  00000+0  48884-4 0  9999
2 27432  98.8993  40.5018 0049184 255.3874 212.6913 14.14528931217657
MIDORI II (ADEOS-II)    
1 27597U 02056A   25351.89604408  .00000215  00000+0  10255-3 0  9991
2 27597  98.7643 304.8795 0000456 152.5677 207.5528 14.29209218198615
H-2A R/B                
1 27601U 02056E   25351.91586944  .00000300  00000+0  11972-3 0  9996
2 27601  98.3072 310.4666 0071252  45.9512  19.7486 14.33680526202395
CZ-4B R/B               
1 28059U 03049C   25351.89114429  .00000325  00000+0  86120-4 0  9994
2 28059  98.6790 338.6497 0049213 120.6230 239.9832 14.54914197174708
CZ-2C R/B               
1 28222U 04012C   25351.88515604  .00033950  00000+0  48736-3 0  9996
2 28222  97.7420  44.9330 0016455 250.1529 109.7951 15.55897765191523
SL-16 R/B               
1 28353U 04021B   25351.85431778 -.00000158  00000+0 -57667-4 0  9997
2 28353  71.0010  44.2324 0005017 191.8105 168.2900 14.14579023111262
CZ-4B R/B               
1 28415U 04035C   25351.67134317  .00006588  00000+0  24451-3 0  9995
2 28415  97.3603  21.9499 0031523 258.9877 100.7816 15.27451431167385
CZ-2C R/B               
1 28480U 04046B   25351.72708369  .00000168  00000+0  77434-4 0  9997
2 28480  98.1992 266.7949 0140279  37.6503 323.4398 14.26943486 96815
ARIANE 5 R/B            
1 28499U 04049H   25351.90821186  .00000999  00000+0  11726-3 0  9996
2 28499  98.2524 152.3749 0083313 255.9497 103.2445 14.85024708133650
CZ-2D R/B               
1 28738U 05024B   25351.74668283  .00025825  00000+0  40785-3 0  9997
2 28738  97.3627 359.3261 0004696 347.4204  12.6931 15.53473632127036
